STARLINK-5593           
1 55763U 23028Y   26068.88652884 -.00000516  00000+0 -35437-4 0  9991
2 55763  69.9990 243.7948 0003066 268.3436  91.7372 14.98328248166072
ION SCV-022             
1 66682U 25276S   26068.74520243  .00001950  00000+0  17277-3 0  9990
2 66682  97.5376 142.9780 0004539 154.7099 205.4346 14.97347265 15192
